id,name,longitude,latitude,country,state,city,district,neighbourhood,suburb,street,postcode,address,categories
2664763142,Nuba,-3.681935899999999,40.437430500324794,Spain,Community of Madrid,Madrid,,,Salamanca,Calle de María de Molina,28006,Nuba, Calle de María de Molina, 46, 28006 Madrid, Spain,['commercial', 'service', 'service.travel_agency']
2664763153,WORKcenter,-3.6828688,40.43744930032479,Spain,Community of Madrid,Madrid,,,Salamanca,Calle de María de Molina,28006,WORKcenter, Calle de María de Molina, 40, 28006 Madrid, Spain,['commercial']
7310111429,Supercor,-3.6844877,40.438021200324876,Spain,Community of Madrid,Madrid,,,Chamartín,Calle de López de Hoyos,28006,Supercor, Calle de López de Hoyos, 28006 Madrid, Spain,['commercial', 'commercial.supermarket']
9132646917,Sana Locura Gluten Free Bakery,-3.6801423,40.43610320032464,Spain,Community of Madrid,Madrid,,,Salamanca,Calle del General Oráa,28006,Sana Locura Gluten Free Bakery, Calle del General Oráa, 49, 28006 Madrid, Spain,['commercial', 'commercial.food_and_drink', 'commercial.food_and_drink.bakery', 'gluten_free']
7310551050,Aerolineas Estelar,-3.6834730999999996,40.43568370032459,Spain,Community of Madrid,Madrid,,,Salamanca,Calle de Velázquez,28006,Aerolineas Estelar, Calle de Velázquez, 105, 28006 Madrid, Spain,['commercial', 'internet_access', 'internet_access.free', 'service', 'service.travel_agency', 'wheelchair', 'wheelchair.yes']
4767532422,Pancomido,-3.6842106,40.43604820032462,Spain,Community of Madrid,Madrid,,,Salamanca,Calle de Lagasca,28006,Pancomido, Calle de Lagasca, 28006 Madrid, Spain,['commercial', 'commercial.food_and_drink', 'commercial.food_and_drink.bakery']
11526396812,Mercadona,-3.679005099999999,40.43650150032468,Spain,Community of Madrid,Madrid,,,Salamanca,Calle del Príncipe de Vergara,28006,Mercadona, Calle del Príncipe de Vergara, 28006 Madrid, Spain,['commercial', 'commercial.supermarket']
4767854322,Dia,-3.6850158,40.43632690032466,Spain,Community of Madrid,Madrid,,,Salamanca,Calle del General Oráa,28006,Dia, Calle del General Oráa, 28006 Madrid, Spain,['commercial', 'commercial.supermarket']
8304659699,Supersol,-3.6816012000000002,40.43470070032446,Spain,Community of Madrid,Madrid,,,Salamanca,Calle de Diego de León,28006,Supersol, Calle de Diego de León, 28006 Madrid, Spain,['commercial', 'commercial.supermarket']
1474198288,Óptica Cottet,-3.6802118,40.434955300324475,Spain,Community of Madrid,Madrid,,,Salamanca,Calle de Diego de León,28006,Óptica Cottet, Calle de Diego de León, 28006 Madrid, Spain,['commercial', 'commercial.health_and_beauty', 'commercial.health_and_beauty.optician']
9054512016,an,-3.6854747999999993,40.43614960032464,Spain,Community of Madrid,Madrid,,,Salamanca,Calle de Claudio Coello,28006,an, Calle de Claudio Coello, 141, 28006 Madrid, Spain,['commercial', 'commercial.outdoor_and_sport']
3437195546,Marta Escauriaza Beauty Studio,-3.6821103,40.43452400032444,Spain,Community of Madrid,Madrid,,,Salamanca,Calle de Núñez de Balboa,28006,Marta Escauriaza Beauty Studio, Calle de Núñez de Balboa, 95, 28006 Madrid, Spain,['commercial', 'commercial.health_and_beauty', 'service', 'service.beauty', 'service.beauty.spa']
9663306381,Mobalpa,-3.6791371,40.439963900325125,Spain,Community of Madrid,Madrid,,,Chamartín,Calle del Príncipe de Vergara,28002,Mobalpa, Calle del Príncipe de Vergara, 111, 28002 Madrid, Spain,['commercial', 'commercial.furniture_and_interior']
7187507985,Ropa parroquia virgen peregrina vtornik I pyatnica 9:30,-3.6809027,40.43458880032443,Spain,Community of Madrid,Madrid,,,Salamanca,Calle de Diego de León,28006,Ropa parroquia virgen peregrina vtornik I pyatnica 9:30, Calle de Diego de León, 36, 28006 Madrid, Spain,['commercial', 'commercial.clothing', 'commercial.clothing.clothes']
2664763144,Siguero,-3.6777986,40.437248600324786,Spain,Community of Madrid,Madrid,,,Salamanca,Calle de María de Molina,28006,Siguero, Calle de María de Molina, 70, 28006 Madrid, Spain,['commercial', 'commercial.food_and_drink', 'commercial.food_and_drink.drinks']
8557834543,ABAI,-3.6799823,40.440579200325196,Spain,Community of Madrid,Madrid,,,Chamartín,Glorieta de López de Hoyos,28002,ABAI, Glorieta de López de Hoyos, 8, 28002 Madrid, Spain,['commercial', 'commercial.furniture_and_interior']
3457899483,F. Saiz Cuentakilometros,-3.6776400999999996,40.437919900324864,Spain,Community of Madrid,Madrid,,,Chamartín,Calle de Francisco Silvela,28006,F. Saiz Cuentakilometros, Calle de Francisco Silvela, 28006 Madrid, Spain,['commercial', 'service', 'service.vehicle', 'service.vehicle.repair', 'service.vehicle.repair.car']
11276839405,Ensueños,-3.6800753999999993,40.43466350032444,Spain,Community of Madrid,Madrid,,,Salamanca,Calle de Diego de León,28006,Ensueños, Calle de Diego de León, 44, 28006 Madrid, Spain,['commercial', 'commercial.furniture_and_interior', 'commercial.furniture_and_interior.bed', 'wheelchair', 'wheelchair.yes']
9663306397,Pelu qué arte!,-3.6791087000000005,40.440182000325144,Spain,Community of Madrid,Madrid,,,Chamartín,Calle del Príncipe de Vergara,28002,Pelu qué arte!, Calle del Príncipe de Vergara, 111A, 28002 Madrid, Spain,['commercial', 'service', 'service.beauty', 'service.beauty.hairdresser']
7310111409,Aston Martin Madrid,-3.6801345,40.44078250032522,Spain,Community of Madrid,Madrid,,,Chamartín,Glorieta de López de Hoyos,28002,Aston Martin Madrid, Glorieta de López de Hoyos, 5, 28002 Madrid, Spain,['commercial', 'commercial.vehicle']
3127903708,Maserati Tayre Automoción,-3.679741499999999,40.44074720032521,Spain,Community of Madrid,Madrid,,,Chamartín,Calle de López de Hoyos,28002,Maserati Tayre Automoción, Calle de López de Hoyos, 62, 28002 Madrid, Spain,['commercial', 'commercial.vehicle']
4594569395,Halcón Viajes,-3.6773079,40.43697160032473,Spain,Community of Madrid,Madrid,,,Salamanca,Calle de Francisco Silvela,28028,Halcón Viajes, Calle de Francisco Silvela, 28028 Madrid, Spain,['commercial', 'service', 'service.travel_agency']
9663694610,Kvik - Cocinas, baños y armarios,-3.6790676999999996,40.4405391003252,Spain,Community of Madrid,Madrid,,,Chamartín,Calle del Príncipe de Vergara,28002,Kvik - Cocinas, baños y armarios, Calle del Príncipe de Vergara, 115, 28002 Madrid, Spain,['commercial', 'commercial.furniture_and_interior', 'commercial.furniture_and_interior.kitchen']
3195842281,Crownhill Shoes,-3.6845674000000006,40.43464080032445,Spain,Community of Madrid,Madrid,,,Salamanca,Calle de Lagasca,28006,Crownhill Shoes, Calle de Lagasca, 107, 28006 Madrid, Spain,['commercial', 'commercial.clothing', 'commercial.clothing.clothes']
4391439194,Halcón Viajes,-3.6772239000000004,40.436921200324726,Spain,Community of Madrid,Madrid,,,Salamanca,Calle de Francisco Silvela,28028,Halcón Viajes, Calle de Francisco Silvela, 28028 Madrid, Spain,['commercial', 'service', 'service.travel_agency']
3127903712,Mantequería Rosas,-3.6811776,40.44133020032529,Spain,Community of Madrid,Madrid,,,Chamartín,Calle de Francisco Silvela,28006,Mantequería Rosas, Calle de Francisco Silvela, 28006 Madrid, Spain,['commercial']
11276872593,Antonio Parriego,-3.681939199999999,40.43392350032435,Spain,Community of Madrid,Madrid,,,Salamanca,Calle de Maldonado,28006,Antonio Parriego, Calle de Maldonado, 28006 Madrid, Spain,['commercial', 'commercial.clothing', 'commercial.clothing.shoes']
1305153209,La Sirena,-3.6795784,40.43434610032441,Spain,Community of Madrid,Madrid,,,Salamanca,Calle del Príncipe de Vergara,28006,La Sirena, Calle del Príncipe de Vergara, 69, 28006 Madrid, Spain,['commercial', 'commercial.food_and_drink', 'commercial.food_and_drink.frozen_food', 'wheelchair', 'wheelchair.yes']
9663694615,Mail Boxes Etc.,-3.6794261999999995,40.44090890032523,Spain,Community of Madrid,Madrid,,,Chamartín,Calle de López de Hoyos,28002,Mail Boxes Etc., Calle de López de Hoyos, 28002 Madrid, Spain,['commercial', 'service', 'service.post', 'service.post.box']
9663694611,Trek,-3.6790645999999994,40.44073370032521,Spain,Community of Madrid,Madrid,,,Chamartín,Calle del Príncipe de Vergara,28002,Trek, Calle del Príncipe de Vergara, 117, 28002 Madrid, Spain,['commercial', 'commercial.outdoor_and_sport', 'commercial.outdoor_and_sport.bicycle']
11276872588,Sybarite,-3.6813791,40.43388460032434,Spain,Community of Madrid,Madrid,,,Salamanca,Calle de Maldonado,28006,Sybarite, Calle de Maldonado, 31, 28006 Madrid, Spain,['commercial', 'commercial.health_and_beauty', 'service', 'service.beauty', 'service.beauty.spa', 'wheelchair', 'wheelchair.yes']
1305153207,Dia,-3.6829667,40.433948000324364,Spain,Community of Madrid,Madrid,,,Salamanca,Calle de Maldonado,28006,Dia, Calle de Maldonado, 28006 Madrid, Spain,['commercial', 'commercial.supermarket']
8610736127,Carrefour Market,-3.6785657000000005,40.440467700325186,Spain,Community of Madrid,Madrid,,,Chamartín,Calle del Príncipe de Vergara,28002,Carrefour Market, Calle del Príncipe de Vergara, 120, 28002 Madrid, Spain,['commercial', 'commercial.supermarket']
3637328660,Imagine Accesorios,-3.6768777999999998,40.43742550032481,Spain,Community of Madrid,Madrid,,,Salamanca,Avenida de América,28028,Imagine Accesorios, Avenida de América, 2, 28028 Madrid, Spain,['commercial']
3127903718,Tritón ciencias naturales,-3.6813562000000006,40.441493500325315,Spain,Community of Madrid,Madrid,,,Chamartín,Calle de Francisco Silvela,28006,Tritón ciencias naturales, Calle de Francisco Silvela, 28006 Madrid, Spain,['commercial', 'commercial.pet', 'pet', 'pet.shop']
11276784748,Soy,-3.6795843,40.43421280032439,Spain,Community of Madrid,Madrid,,,Salamanca,Calle del Príncipe de Vergara,28006,Soy, Calle del Príncipe de Vergara, 67, 28006 Madrid, Spain,['commercial', 'commercial.health_and_beauty', 'service', 'service.beauty', 'service.beauty.spa', 'wheelchair', 'wheelchair.limited']
9663694614,Namura Bikes,-3.6792577000000004,40.44097360032525,Spain,Community of Madrid,Madrid,,,Chamartín,Calle de López de Hoyos,28002,Namura Bikes, Calle de López de Hoyos, 64, 28002 Madrid, Spain,['commercial', 'commercial.vehicle']
9663694612,Rafael Caballero,-3.6790311,40.44089840032523,Spain,Community of Madrid,Madrid,,,Chamartín,Calle del Príncipe de Vergara,28002,Rafael Caballero, Calle del Príncipe de Vergara, 119, 28002 Madrid, Spain,['commercial', 'commercial.furniture_and_interior']
11276784747,La Barbería De Vergara,-3.679592499999999,40.43412500032438,Spain,Community of Madrid,Madrid,,,Salamanca,Calle del Príncipe de Vergara,28006,La Barbería De Vergara, Calle del Príncipe de Vergara, 67, 28006 Madrid, Spain,['commercial', 'service', 'service.beauty', 'service.beauty.hairdresser']
3457899487,Perfumería Pastor,-3.6765314,40.43765860032482,Spain,Community of Madrid,Madrid,,,Salamanca,Avenida de América,28028,Perfumería Pastor, Avenida de América, 28028 Madrid, Spain,['commercial', 'commercial.chemist']
5758859524,Iguana Sell,-3.6819810999999993,40.43345030032428,Spain,Community of Madrid,Madrid,,,Salamanca,Calle de Núñez de Balboa,28006,Iguana Sell, Calle de Núñez de Balboa, 90, 28006 Madrid, Spain,['commercial', 'commercial.jewelry']
2664897897,Maxcoop,-3.6764495000000004,40.43848810032493,Spain,Community of Madrid,Madrid,,,Chamartín,Avenida de América,28002,Maxcoop, Avenida de América, 13, 28002 Madrid, Spain,['commercial', 'commercial.convenience']
4447484292,Carrefour Market,-3.6784437999999993,40.441042000325254,Spain,Community of Madrid,Madrid,,,Chamartín,Calle del Príncipe de Vergara,28002,Calle del Príncipe de Vergara, 28002 Madrid, Spain,['commercial', 'commercial.supermarket']
5748984023,Casilda Finat,-3.6844262,40.433758000324325,Spain,Community of Madrid,Madrid,,,Salamanca,Calle de Lagasca,28006,Casilda Finat, Calle de Lagasca, 106, 28006 Madrid, Spain,['commercial', 'commercial.jewelry']
1305153228,24/7,-3.6791812,40.43379240032433,Spain,Community of Madrid,Madrid,,,Salamanca,Calle de Maldonado,28006,24/7, Calle de Maldonado, 28006 Madrid, Spain,['commercial', 'commercial.convenience']
3212683926,Confitería Rialto,-3.6820026999999995,40.43310040032424,Spain,Community of Madrid,Madrid,,,Salamanca,Calle de Núñez de Balboa,28006,Confitería Rialto, Calle de Núñez de Balboa, 86, 28006 Madrid, Spain,['commercial', 'commercial.food_and_drink', 'commercial.food_and_drink.bakery']
6448322687,First,-3.6760656999999997,40.43873950032496,Spain,Community of Madrid,Madrid,,,Chamartín,Intercambiador de Av. de América (Largo Recorrido),28006,First, Intercambiador de Av. de América (Largo Recorrido), 28006 Madrid, Spain,['commercial', 'commercial.clothing', 'commercial.clothing.shoes']
11557459669,You Yi Tours,-3.6758139,40.43808290032488,Spain,Community of Madrid,Madrid,,,Salamanca,Avenida de América,28028,You Yi Tours, Avenida de América, 10, 28028 Madrid, Spain,['commercial', 'service', 'service.travel_agency']
2664897883,Avenida,-3.675944599999999,40.43878810032496,Spain,Community of Madrid,Madrid,,,Chamartín,Avenida de América,28002,Avenida de América, 17, 28002 Madrid, Spain,['commercial', 'service', 'service.beauty', 'service.beauty.hairdresser']
993195631,Dia,-3.6759793,40.43634390032466,Spain,Community of Madrid,Madrid,,,Salamanca,Calle de Francisco Silvela,28028,Dia, Calle de Francisco Silvela, 28028 Madrid, Spain,['commercial', 'commercial.supermarket']
1305153224,La Plaza de DIA,-3.6777969999999995,40.43411780032438,Spain,Community of Madrid,Madrid,,,Salamanca,Calle del General Pardiñas,28006,La Plaza de DIA, Calle del General Pardiñas, 96, 28006 Madrid, Spain,['commercial', 'commercial.supermarket']
2664897889,División,-3.6757991,40.438873300324985,Spain,Community of Madrid,Madrid,,,Chamartín,Avenida de América,28002,División, Avenida de América, 23, 28002 Madrid, Spain,['commercial', 'service', 'service.beauty', 'service.beauty.hairdresser']
8408689065,Panaderia Delirio,-3.6810212999999994,40.43286060032421,Spain,Community of Madrid,Madrid,,,Salamanca,Calle de Juan Bravo,28006,Panaderia Delirio, Calle de Juan Bravo, 28006 Madrid, Spain,['commercial', 'commercial.food_and_drink', 'commercial.food_and_drink.bakery']
7650103904,Serbal,-3.6836933000000003,40.43299430032423,Spain,Community of Madrid,Madrid,,,Salamanca,Calle de Juan Bravo,28006,Serbal, Calle de Juan Bravo, 28006 Madrid, Spain,['commercial', 'commercial.weapons']
7386343749,Naser Top Line,-3.6756070999999992,40.43708730032476,Spain,Community of Madrid,Madrid,,,Salamanca,Calle de Coslada,28028,Naser Top Line, Calle de Coslada, 28028 Madrid, Spain,['commercial', 'commercial.elektronics']
7386343748,BuceoNaser,-3.6755026000000006,40.43713560032475,Spain,Community of Madrid,Madrid,,,Salamanca,Calle de Coslada,28028,BuceoNaser, Calle de Coslada, 28028 Madrid, Spain,['commercial', 'commercial.outdoor_and_sport', 'commercial.outdoor_and_sport.diving']
7159030862,In,-3.675507099999999,40.4382652003249,Spain,Community of Madrid,Madrid,,,Salamanca,Avenida de América,28028,In, Avenida de América, 28028 Madrid, Spain,['commercial', 'service', 'service.beauty', 'service.beauty.hairdresser']
3361676399,Alimentaction Tacho II,-3.6811833,40.44260960032546,Spain,Community of Madrid,Madrid,,,Chamartín,Calle de Gabriel Lobo,28002,Alimentaction Tacho II, Calle de Gabriel Lobo, 28002 Madrid, Spain,['commercial', 'commercial.convenience']
4515960089,Librería CientÍfica,-3.686204299999999,40.44161320032533,Spain,Community of Madrid,Madrid,,,Chamartín,Calle de Serrano,28006,Librería CientÍfica, Calle de Serrano, 123, 28006 Madrid, Spain,['commercial', 'commercial.books']
4594569095,Frutas y Verduras,-3.6755514,40.43594310032461,Spain,Community of Madrid,Madrid,,,Salamanca,Calle de Francisco Silvela,28028,Frutas y Verduras, Calle de Francisco Silvela, 28028 Madrid, Spain,['commercial', 'commercial.food_and_drink', 'commercial.food_and_drink.fruit_and_vegetable']
3361678817,Alimentación,-3.6806075000000003,40.44286860032549,Spain,Community of Madrid,Madrid,,,Chamartín,Calle de Gabriel Lobo,28002,Alimentación, Calle de Gabriel Lobo, 28002 Madrid, Spain,['commercial', 'commercial.convenience']
8557830402,Midas,-3.6775127,40.44178690032536,Spain,Community of Madrid,Madrid,,,Chamartín,Calle de López de Hoyos,28002,Midas, Calle de López de Hoyos, 28002 Madrid, Spain,['commercial', 'service', 'service.vehicle', 'service.vehicle.repair', 'service.vehicle.repair.car']
3097040793,Ibermaison,-3.6864374,40.4334919003243,Spain,Community of Madrid,Madrid,,,Salamanca,Calle de Serrano,28006,Ibermaison, Calle de Serrano, 98, 28006 Madrid, Spain,['commercial', 'commercial.clothing', 'commercial.clothing.clothes']
3361679737,Silvestre Frutería,-3.6801418999999997,40.443051600325504,Spain,Community of Madrid,Madrid,,,Chamartín,Calle Felipe Campos,28002,Silvestre Frutería, Calle Felipe Campos, 28002 Madrid, Spain,['commercial', 'commercial.food_and_drink', 'commercial.food_and_drink.fruit_and_vegetable']
3361678846,Alonso,-3.6801769999999996,40.4430838003255,Spain,Community of Madrid,Madrid,,,Chamartín,Calle Felipe Campos,28002,Alonso, Calle Felipe Campos, 28002 Madrid, Spain,['commercial', 'commercial.food_and_drink', 'commercial.food_and_drink.seafood']
4594613989,Style & Cut,-3.675336,40.435070800324496,Spain,Community of Madrid,Madrid,,,Salamanca,Calle de Francisco Silvela,28006,Style & Cut, Calle de Francisco Silvela, 28006 Madrid, Spain,['commercial', 'service', 'service.beauty', 'service.beauty.hairdresser']
6013317287,Ferretería Leonesa,-3.6856975000000003,40.43278100032421,Spain,Community of Madrid,Madrid,,,Salamanca,Calle de Juan Bravo,28006,Ferretería Leonesa, Calle de Juan Bravo, 28006 Madrid, Spain,['commercial', 'commercial.houseware_and_hardware', 'commercial.houseware_and_hardware.hardware_and_tools', 'wheelchair', 'wheelchair.yes']
5493309521,Marco Aldani,-3.6745446,40.43868880032496,Spain,Community of Madrid,Madrid,,,Salamanca,Avenida de América,28028,Marco Aldani, Avenida de América, 28028 Madrid, Spain,['commercial', 'service', 'service.beauty', 'service.beauty.hairdresser']
5493309522,Alimentación,-3.6742717999999996,40.437748000324845,Spain,Community of Madrid,Madrid,,,Salamanca,Calle de Pilar de Zaragoza,28028,Alimentación, Calle de Pilar de Zaragoza, 28028 Madrid, Spain,['commercial', 'commercial.convenience']
4594571289,Nuevo Silvela,-3.6748881,40.43532400032454,Spain,Community of Madrid,Madrid,,,Salamanca,Calle de Francisco Silvela,28006,Nuevo Silvela, Calle de Francisco Silvela, 28006 Madrid, Spain,['commercial', 'commercial.food_and_drink', 'commercial.food_and_drink.butcher']
4552272991,Mosca Gallery,-3.6800188,40.44335510032555,Spain,Community of Madrid,Madrid,,,Chamartín,Calle de Gabriel Lobo,28002,Mosca Gallery, Calle de Gabriel Lobo, 18, 28002 Madrid, Spain,['commercial', 'commercial.art']
5493309324,Trastown,-3.674284899999999,40.438729300324965,Spain,Community of Madrid,Madrid,,,Salamanca,Avenida de América,28028,Trastown, Avenida de América, 22, 28028 Madrid, Spain,['commercial', 'rental', 'rental.storage']
7750082141,The Fulham,-3.6864509,40.4328311003242,Spain,Community of Madrid,Madrid,,,Salamanca,Calle de Juan Bravo,28006,The Fulham, Calle de Juan Bravo, 2, 28006 Madrid, Spain,['commercial', 'commercial.clothing', 'commercial.clothing.clothes']
4594569393,Optimedia,-3.6747746000000006,40.43520090032452,Spain,Community of Madrid,Madrid,,,Salamanca,Calle de Francisco Silvela,28006,Optimedia, Calle de Francisco Silvela, 28006 Madrid, Spain,['commercial', 'commercial.health_and_beauty', 'commercial.health_and_beauty.optician']
5642549249,Dideco,-3.6788089000000004,40.44319230032553,Spain,Community of Madrid,Madrid,,,Chamartín,Calle del Príncipe de Vergara,28002,Dideco, Calle del Príncipe de Vergara, 133, 28002 Madrid, Spain,['commercial', 'commercial.toy_and_game']
4676206089,Mercedes-Benz Smart,-3.6739732000000003,40.43807730032489,Spain,Community of Madrid,Madrid,,,Salamanca,Calle de Coslada,28028,Mercedes-Benz Smart, Calle de Coslada, 28028 Madrid, Spain,['commercial', 'commercial.vehicle']
4487170747,Universomac Servicio Técnico Autorizado Apple,-3.6737169,40.43817710032489,Spain,Community of Madrid,Madrid,,,Salamanca,Calle de Coslada,28028,Universomac Servicio Técnico Autorizado Apple, Calle de Coslada, 15, 28028 Madrid, Spain,['commercial', 'commercial.elektronics', 'wheelchair', 'wheelchair.yes']
7165540985,Juguettos,-3.6773924000000004,40.43240090032416,Spain,Community of Madrid,Madrid,,,Salamanca,Calle de Juan Bravo,28006,Juguettos, Calle de Juan Bravo, 42, 28006 Madrid, Spain,['commercial', 'commercial.toy_and_game']
9287698733,Lago,-3.6833937,40.431456100324034,Spain,Community of Madrid,Madrid,,,Salamanca,Calle de Padilla,28006,Lago, Calle de Padilla, 28006 Madrid, Spain,['commercial', 'commercial.furniture_and_interior']
1707111813,Clarel,-3.675565,40.441697300325345,Spain,Community of Madrid,Madrid,,,Chamartín,Calle de Canillas,28002,Clarel, Calle de Canillas, 23, 28002 Madrid, Spain,['commercial', 'commercial.chemist']
4683067990,Kymco,-3.673661599999999,40.43731310032479,Spain,Community of Madrid,Madrid,,,Salamanca,Calle de Pilar de Zaragoza,28028,Kymco, Calle de Pilar de Zaragoza, 28028 Madrid, Spain,['commercial', 'service', 'service.vehicle', 'service.vehicle.repair', 'service.vehicle.repair.car']
7995764534,Domestico,-3.6848477999999996,40.43171970032408,Spain,Community of Madrid,Madrid,,,Salamanca,Calle de Padilla,28006,Domestico, Calle de Padilla, 28006 Madrid, Spain,['commercial', 'commercial.furniture_and_interior']
4568655989,Bazar,-3.6737469999999997,40.438827400324975,Spain,Community of Madrid,Madrid,,,Salamanca,Avenida de América,28028,Bazar, Avenida de América, 28028 Madrid, Spain,['commercial', 'commercial.convenience']
4582623421,PCBox,-3.6747964000000004,40.44096060032524,Spain,Community of Madrid,Madrid,,,Chamartín,Calle de Cartagena,28002,PCBox, Calle de Cartagena, 28002 Madrid, Spain,['commercial', 'commercial.elektronics']
9287678242,Rojo,-3.6834147,40.431341600324025,Spain,Community of Madrid,Madrid,,,Salamanca,Calle de Velázquez,28006,Rojo, Calle de Velázquez, 28006 Madrid, Spain,['commercial', 'commercial.clothing', 'commercial.clothing.clothes']
3265627994,Dia,-3.6751175,40.441449600325306,Spain,Community of Madrid,Madrid,,,Chamartín,Calle de Cartagena,28002,Dia, Calle de Cartagena, 28002 Madrid, Spain,['commercial', 'commercial.supermarket']
4568655990,América,-3.6736337,40.438849400324976,Spain,Community of Madrid,Madrid,,,Salamanca,Avenida de América,28028,Avenida de América, 28028 Madrid, Spain,['commercial', 'commercial.houseware_and_hardware', 'commercial.houseware_and_hardware.hardware_and_tools']
3265474260,Marisquería Salamar,-3.6738317000000005,40.43959790032507,Spain,Community of Madrid,Madrid,,,Chamartín,Calle de Cartagena,28002,Marisquería Salamar, Calle de Cartagena, 28002 Madrid, Spain,['commercial', 'commercial.food_and_drink', 'commercial.food_and_drink.seafood']
390821988,Lidl,-3.673230023514421,40.43850560032493,Spain,Community of Madrid,Madrid,,,Salamanca,Calle de Coslada,28028,Calle de Coslada, 28028 Madrid, Spain,['building', 'building.commercial', 'commercial', 'commercial.supermarket']
3949569365,Juteco,-3.6735617,40.438851900324984,Spain,Community of Madrid,Madrid,,,Salamanca,Avenida de América,28028,Juteco, Avenida de América, 28028 Madrid, Spain,['commercial', 'commercial.health_and_beauty', 'service', 'service.beauty', 'service.beauty.spa']
4214036600,Milann,-3.6739872,40.440175700325135,Spain,Community of Madrid,Madrid,,,Chamartín,Calle de Cartagena,28002,Milann, Calle de Cartagena, 28002 Madrid, Spain,['commercial', 'commercial.clothing', 'commercial.clothing.clothes']
118513025,Centro Comercial ABC,-3.6874570562870304,40.43202165032412,Spain,Community of Madrid,Madrid,,,Salamanca,Calle de Serrano,28006,Centro Comercial ABC, Calle de Serrano, 61, 28006 Madrid, Spain,['building', 'building.commercial', 'commercial', 'commercial.shopping_mall', 'internet_access']
4582622763,Ducati,-3.6746957,40.44126900032527,Spain,Community of Madrid,Madrid,,,Chamartín,Calle de Zabaleta,28002,Ducati, Calle de Zabaleta, 28002 Madrid, Spain,['commercial', 'commercial.vehicle']
10245085436,Luisipo,-3.6738403999999996,40.439985900325134,Spain,Community of Madrid,Madrid,,,Chamartín,Calle de Clara del Rey,28002,Luisipo, Calle de Clara del Rey, 28002 Madrid, Spain,['commercial', 'commercial.clothing']
7995782903,Oh My Cut,-3.6858161,40.43175810032409,Spain,Community of Madrid,Madrid,,,Salamanca,Calle de Padilla,28006,Oh My Cut, Calle de Padilla, 28006 Madrid, Spain,['commercial', 'service', 'service.beauty', 'service.beauty.hairdresser']
5814492526,Carrefour Express,-3.675184699999999,40.433396800324296,Spain,Community of Madrid,Madrid,,,Salamanca,Calle de Maldonado,28006,Carrefour Express, Calle de Maldonado, 28006 Madrid, Spain,['commercial', 'commercial.convenience']
4594542401,Pescados Jose,-3.6743796,40.4342002003244,Spain,Community of Madrid,Madrid,,,Salamanca,Calle de Francisco Silvela,28006,Pescados Jose, Calle de Francisco Silvela, 28006 Madrid, Spain,['commercial', 'commercial.food_and_drink', 'commercial.food_and_drink.seafood']
327529454,Dia,-3.6751848,40.43332700032428,Spain,Community of Madrid,Madrid,,,Salamanca,Calle de Maldonado,28006,Dia, Calle de Maldonado, 28006 Madrid, Spain,['commercial', 'commercial.supermarket']
4582623638,Opticalia,-3.6752409999999993,40.44206660032539,Spain,Community of Madrid,Madrid,,,Chamartín,Calle de Cartagena,28002,Opticalia, Calle de Cartagena, 28002 Madrid, Spain,['commercial', 'commercial.health_and_beauty', 'commercial.health_and_beauty.optician']
7180525286,Ferreteria,-3.6736646,40.435224600324524,Spain,Community of Madrid,Madrid,Madrid Moderno,,Salamanca,Calle de Ardemans,28028,Ferreteria, Calle de Ardemans, 28028 Madrid, Spain,['commercial', 'commercial.discount_store']
7168562385,Poly,-3.6870754999999997,40.43214010032412,Spain,Community of Madrid,Madrid,,,Salamanca,Calle de Serrano,28006,Poly, Calle de Serrano, 61, 28006 Madrid, Spain,['commercial', 'commercial.toy_and_game']
3265599908,El Panecillo,-3.6729734,40.43829070032491,Spain,Community of Madrid,Madrid,,,Salamanca,Calle de Juan de la Hoz,28028,El Panecillo, Calle de Juan de la Hoz, 28028 Madrid, Spain,['catering', 'catering.cafe', 'commercial', 'commercial.food_and_drink', 'commercial.food_and_drink.bakery']
8729146757,Kiosko Bellas Artes,-3.6903535,40.44016990032515,Spain,Community of Madrid,Madrid,,,Chamartín,Calle de José Gutiérrez Abascal,28000,Kiosko Bellas Artes, Calle de José Gutiérrez Abascal, 28000 Madrid, Spain,['commercial', 'commercial.kiosk']
5814501955,Granier,-3.674806999999999,40.43336610032428,Spain,Community of Madrid,Madrid,,,Salamanca,Calle del Conde de Peñalver,28006,Granier, Calle del Conde de Peñalver, 86, 28006 Madrid, Spain,['commercial', 'commercial.food_and_drink', 'commercial.food_and_drink.bakery']
11124585051,Mercadona,-3.6874155,40.43206300032412,Spain,Community of Madrid,Madrid,,,Salamanca,Calle de Serrano,28006,Mercadona, Calle de Serrano, 61, 28006 Madrid, Spain,['commercial', 'commercial.supermarket']
4676205989,Peluquería de caballeros,-3.6728225000000005,40.43847640032492,Spain,Community of Madrid,Madrid,,,Salamanca,Camino de Canillas,28028,Peluquería de caballeros, Camino de Canillas, 28028 Madrid, Spain,['commercial', 'service', 'service.beauty', 'service.beauty.hairdresser']
10245085435,La Esenccia,-3.673366,40.440208900325146,Spain,Community of Madrid,Madrid,,,Chamartín,Calle de Clara del Rey,28002,La Esenccia, Calle de Clara del Rey, 4, 28002 Madrid, Spain,['catering', 'catering.cafe', 'commercial', 'commercial.food_and_drink', 'commercial.food_and_drink.bakery']
4214036866,Pastelería Reyes,-3.676079899999999,40.44308090032552,Spain,Community of Madrid,Madrid,,,Chamartín,Calle de Cartagena,28002,Pastelería Reyes, Calle de Cartagena, 150, 28002 Madrid, Spain,['commercial', 'commercial.food_and_drink', 'commercial.food_and_drink.bakery']
6241264086,Rica Fruit,-3.6727616000000003,40.43842730032492,Spain,Community of Madrid,Madrid,Madrid Moderno,,Salamanca,Calle de Cartagena,28028,Rica Fruit, Calle de Cartagena, 28028 Madrid, Spain,['commercial', 'commercial.food_and_drink', 'commercial.food_and_drink.fruit_and_vegetable']
11124585050,Viena Capellanes,-3.6880266,40.43228320032416,Spain,Community of Madrid,Madrid,,,Salamanca,Paseo de la Castellana,28046,Viena Capellanes, Paseo de la Castellana, 34, 28046 Madrid, Spain,['commercial', 'commercial.food_and_drink', 'commercial.food_and_drink.bakery', 'internet_access', 'internet_access.free', 'wheelchair', 'wheelchair.yes']
993195633,ALDI,-3.6737037,40.434222000324375,Spain,Community of Madrid,Madrid,Madrid Moderno,,Salamanca,Calle de Francisco Silvela,28006,ALDI, Calle de Francisco Silvela, 48, 28006 Madrid, Spain,['commercial', 'commercial.supermarket']
6349757975,IKEA,-3.6870065999999992,40.431644100324064,Spain,Community of Madrid,Madrid,,,Salamanca,Calle de Serrano,28006,IKEA, Calle de Serrano, 55, 28006 Madrid, Spain,['commercial', 'commercial.furniture_and_interior']
10245085439,Puertas Camino,-3.6731577,40.44027130032516,Spain,Community of Madrid,Madrid,,,Chamartín,Calle de Clara del Rey,28002,Puertas Camino, Calle de Clara del Rey, 4, 28002 Madrid, Spain,['commercial', 'commercial.houseware_and_hardware', 'commercial.houseware_and_hardware.building_materials', 'commercial.houseware_and_hardware.building_materials.glaziery']
3191950707,Farmacia Castellana,-3.688127699999999,40.43223550032413,Spain,Community of Madrid,Madrid,,,Salamanca,Paseo de la Castellana,28046,Farmacia Castellana, Paseo de la Castellana, 34, 28046 Madrid, Spain,['commercial']
4214034208,Namura Bikes,-3.6771863,40.44390670032561,Spain,Community of Madrid,Madrid,,,Chamartín,Calle de Cartagena,28002,Namura Bikes, Calle de Cartagena, 28002 Madrid, Spain,['commercial', 'commercial.vehicle']
4683041995,Oltivas,-3.6725711,40.4365572003247,Spain,Community of Madrid,Madrid,Madrid Moderno,,Salamanca,Calle de Pilar de Zaragoza,28028,Oltivas, Calle de Pilar de Zaragoza, 28028 Madrid, Spain,['commercial', 'commercial.houseware_and_hardware', 'commercial.houseware_and_hardware.hardware_and_tools']
3131193909,Casa Joven,-3.6756914,40.443115800325515,Spain,Community of Madrid,Madrid,,,Chamartín,Calle de López de Hoyos,28002,Casa Joven, Calle de López de Hoyos, 69, 28002 Madrid, Spain,['commercial', 'commercial.convenience']
6336187115,Hidelasa,-3.672711,40.439440300325046,Spain,Community of Madrid,Madrid,,,Chamartín,Intercambiador de Avenida de América,28006,Hidelasa, Intercambiador de Avenida de América, 28006 Madrid, Spain,['commercial', 'commercial.health_and_beauty', 'commercial.health_and_beauty.medical_supply']
2665006082,Carrefour Express,-3.672815299999999,40.43980670032509,Spain,Community of Madrid,Madrid,,,Chamartín,Calle Padre Xifré,28002,Carrefour Express, Calle Padre Xifré, 3, 28002 Madrid, Spain,['commercial', 'commercial.convenience']
4417801698,B the travel brand,-3.6914549,40.43788200032486,Spain,Community of Madrid,Madrid,,,Chamberí,Plaza del Doctor Marañón,28000,B the travel brand, Plaza del Doctor Marañón, 28000 Madrid, Spain,['commercial', 'service', 'service.travel_agency']
4712071490,Emirates Airline,-3.6915742,40.438483500324935,Spain,Community of Madrid,Madrid,,,Chamberí,Paseo de la Castellana,28046,Emirates Airline, Paseo de la Castellana, 28046 Madrid, Spain,['commercial', 'service', 'service.travel_agency']
6833344304,Abercrombie & Fitch,-3.6804408000000004,40.43031000032389,Spain,Community of Madrid,Madrid,,,Salamanca,Calle de José Ortega y Gasset,28006,Abercrombie & Fitch, Calle de José Ortega y Gasset, 28006 Madrid, Spain,['commercial', 'commercial.clothing', 'commercial.clothing.clothes', 'commercial.clothing.men', 'commercial.clothing.women']
4214045716,Visionlab,-3.6753070999999995,40.443122500325515,Spain,Community of Madrid,Madrid,,,Chamartín,Calle del General Zabala,28002,Visionlab, Calle del General Zabala, 28002 Madrid, Spain,['commercial', 'commercial.health_and_beauty', 'commercial.health_and_beauty.optician']
4594569599,Joyería,-3.6737528,40.43357150032431,Spain,Community of Madrid,Madrid,,,Salamanca,Calle de Maldonado,28006,Joyería, Calle de Maldonado, 28006 Madrid, Spain,['commercial', 'commercial.jewelry']
4461053789,Rimowa,-3.6866607000000005,40.43108340032398,Spain,Community of Madrid,Madrid,,,Salamanca,Calle de Serrano,28006,RIMOWA, Calle de Serrano, 78, 28006 Madrid, Spain,['commercial', 'commercial.bag']
6017435885,Decathlon,-3.6830953000000006,40.430116400323875,Spain,Community of Madrid,Madrid,,,Salamanca,Calle de José Ortega y Gasset,28006,Decathlon, Calle de José Ortega y Gasset, 22;24, 28006 Madrid, Spain,['commercial', 'commercial.outdoor_and_sport']
10245085444,Ella's & Co,-3.67285,40.440777900325216,Spain,Community of Madrid,Madrid,,,Chamartín,Calle Anastasio Aroca,28002,Ella's & Co, Calle Anastasio Aroca, 28002 Madrid, Spain,['commercial', 'service', 'service.tailor']
4461044995,Tod's,-3.6854470999999998,40.43053990032392,Spain,Community of Madrid,Madrid,,,Salamanca,Calle de José Ortega y Gasset,28006,Tod's, Calle de José Ortega y Gasset, 17, 28006 Madrid, Spain,['commercial', 'commercial.clothing', 'commercial.clothing.shoes']
993195630,La Plaza de DIA,-3.6733456999999996,40.43377550032434,Spain,Community of Madrid,Madrid,Madrid Moderno,,Salamanca,Calle de Francisco Silvela,28006,La Plaza de DIA, Calle de Francisco Silvela, 28006 Madrid, Spain,['commercial', 'commercial.supermarket']
4594569397,León Bazar,-3.6736821000000006,40.43333470032429,Spain,Community of Madrid,Madrid,,,Salamanca,Calle de Maldonado,28006,León Bazar, Calle de Maldonado, 28006 Madrid, Spain,['commercial', 'commercial.discount_store']
4461121662,Panadarío,-3.6721053999999995,40.43620240032464,Spain,Community of Madrid,Madrid,Madrid Moderno,,Salamanca,Calle de Alonso de Heredia,28028,Panadarío, Calle de Alonso de Heredia, 25, 28028 Madrid, Spain,['commercial', 'commercial.food_and_drink', 'commercial.food_and_drink.bakery']
11099180089,Orange,-3.6751366000000005,40.44328390032555,Spain,Community of Madrid,Madrid,,,Chamartín,Calle de López de Hoyos,28002,Orange, Calle de López de Hoyos, 28002 Madrid, Spain,['commercial', 'commercial.elektronics']
2606329606,imaxpc,-3.6744485,40.43252830032417,Spain,Community of Madrid,Madrid,,,Salamanca,Calle de Juan Bravo,28006,imaxpc, Calle de Juan Bravo, 28006 Madrid, Spain,['commercial', 'commercial.elektronics']
11099180090,Tiendanimal,-3.6750948999999995,40.44331470032555,Spain,Community of Madrid,Madrid,,,Chamartín,Calle de López de Hoyos,28002,Calle de López de Hoyos, 28002 Madrid, Spain,['commercial', 'commercial.pet', 'pet', 'pet.shop']
6003014880,Carrefour Express,-3.6919823999999997,40.438225300324895,Spain,Community of Madrid,Madrid,,,Chamberí,Calle de José Abascal,28003,Carrefour Express, Calle de José Abascal, 28003 Madrid, Spain,['commercial', 'commercial.convenience']
3213802159,Ultramarinos - bazar chino,-3.6746241,40.44301300032551,Spain,Community of Madrid,Madrid,,,Chamartín,Calle de Luis Cabrera,28002,Ultramarinos - bazar chino, Calle de Luis Cabrera, 28002 Madrid, Spain,['commercial', 'commercial.convenience']
3127903707,Don Fruta,-3.6732243000000007,40.43366250032431,Spain,Community of Madrid,Madrid,Madrid Moderno,,Salamanca,Calle de Ferrer del Río,28006,Don Fruta, Calle de Ferrer del Río, 28006 Madrid, Spain,['commercial', 'commercial.food_and_drink', 'commercial.food_and_drink.fruit_and_vegetable']
11099180088,Gran Muralla,-3.6750407999999997,40.44337600032556,Spain,Community of Madrid,Madrid,,,Chamartín,Calle de López de Hoyos,28002,Gran Muralla, Calle de López de Hoyos, 28002 Madrid, Spain,['commercial', 'commercial.supermarket']
4461053889,Chanel,-3.6846531999999996,40.43016670032387,Spain,Community of Madrid,Madrid,,,Salamanca,Calle de José Ortega y Gasset,28006,Chanel, Calle de José Ortega y Gasset, 16, 28006 Madrid, Spain,['commercial', 'commercial.clothing', 'commercial.clothing.clothes']
4461044993,Bottega Veneta,-3.6861492,40.43056920032393,Spain,Community of Madrid,Madrid,,,Salamanca,Calle de José Ortega y Gasset,28006,Bottega Veneta, Calle de José Ortega y Gasset, 13, 28006 Madrid, Spain,['commercial', 'commercial.bag']
10245085446,Tesla,-3.6726418,40.44093880032523,Spain,Community of Madrid,Madrid,,,Chamartín,Calle Clara del Rey,28002,Tesla, Calle Clara del Rey, 17, 28002 Madrid, Spain,['commercial', 'commercial.houseware_and_hardware', 'commercial.houseware_and_hardware.hardware_and_tools']
4461044994,Hermès,-3.6854079000000004,40.43024380032388,Spain,Community of Madrid,Madrid,,,Salamanca,Calle de José Ortega y Gasset,28006,Hermes, Calle de José Ortega y Gasset, 12, 28006 Madrid, Spain,['commercial', 'commercial.clothing', 'commercial.clothing.clothes']
2606329603,Electrónica Diotronic,-3.674347799999999,40.432253000324145,Spain,Community of Madrid,Madrid,,,Salamanca,Calle de Juan Bravo,28006,Electrónica Diotronic, Calle de Juan Bravo, 28006 Madrid, Spain,['commercial']
11224609874,Tiffany & Company,-3.6856992999999996,40.430236300323884,Spain,Community of Madrid,Madrid,,,Salamanca,Calle de Claudio Coello,28001,Tiffany & Company, Calle de Claudio Coello, 28001 Madrid, Spain,['commercial', 'commercial.jewelry']
7158933546,Santa Marta,-3.672736799999999,40.43375750032433,Spain,Community of Madrid,Madrid,Madrid Moderno,,Salamanca,Calle de Ferrer del Río,28028,Santa Marta, Calle de Ferrer del Río, 28028 Madrid, Spain,['commercial', 'commercial.health_and_beauty', 'commercial.health_and_beauty.optician']
11099180091,Movistar,-3.6748041000000002,40.443571500325575,Spain,Community of Madrid,Madrid,,,Chamartín,Calle de López de Hoyos,28002,Movistar, Calle de López de Hoyos, 28002 Madrid, Spain,['commercial', 'commercial.elektronics']
4417801992,Mercadona,-3.6919654,40.43528870032451,Spain,Community of Madrid,Madrid,,,Chamberí,Paseo del General Martínez Campos,28010,Mercadona, Paseo del General Martínez Campos, 28010 Madrid, Spain,['commercial', 'commercial.supermarket']
4461044992,Gucci,-3.687095,40.43062680032394,Spain,Community of Madrid,Madrid,,,Salamanca,Calle de Serrano,28006,Gucci, Calle de Serrano, 49, 28006 Madrid, Spain,['commercial', 'commercial.clothing', 'commercial.clothing.clothes']
4704927189,Pasteleria Manolo,-3.6749469000000006,40.43156540032405,Spain,Community of Madrid,Madrid,,,Salamanca,Calle del Conde de Peñalver,28006,Pasteleria Manolo, Calle del Conde de Peñalver, 68, 28006 Madrid, Spain,['commercial', 'commercial.food_and_drink', 'commercial.food_and_drink.bakery']
5488123923,Alcampo,-3.6740912,40.43220490032414,Spain,Community of Madrid,Madrid,,,Salamanca,Calle de Juan Bravo,28006,Alcampo, Calle de Juan Bravo, 58, 28006 Madrid, Spain,['commercial', 'commercial.supermarket']
3170766310,Santagloria,-3.6924977,40.438244300324904,Spain,Community of Madrid,Madrid,,,Chamberí,Calle de José Abascal,28003,Santagloria, Calle de José Abascal, 59, 28003 Madrid, Spain,['catering', 'catering.cafe', 'commercial', 'commercial.food_and_drink', 'commercial.food_and_drink.bakery']
6370961717,Cotton Club,-3.692075499999999,40.43527790032453,Spain,Community of Madrid,Madrid,,,Chamberí,Paseo del General Martínez Campos,28010,Cotton Club, Paseo del General Martínez Campos, 28010 Madrid, Spain,['commercial', 'commercial.clothing', 'commercial.clothing.clothes']
11494664654,Onix,-3.6785465000000004,40.42989600032384,Spain,Community of Madrid,Madrid,,,Salamanca,Calle de José Ortega y Gasset,28006,Onix, Calle de José Ortega y Gasset, 28006 Madrid, Spain,['commercial', 'commercial.jewelry']
4582627611,Lidl,-3.6752909999999996,40.444088500325634,Spain,Community of Madrid,Madrid,,,Chamartín,Calle de Suero de Quiñones,28002,Lidl, Calle de Suero de Quiñones, 28002 Madrid, Spain,['commercial', 'commercial.supermarket']
8984164456,Philipp Plein,-3.6874847,40.430652500323944,Spain,Community of Madrid,Madrid,,,Salamanca,Calle de José Ortega y Gasset,28006,Philipp Plein, Calle de José Ortega y Gasset, 28006 Madrid, Spain,['commercial', 'commercial.clothing', 'commercial.clothing.clothes']
10004682758,Lidl,-3.6753982,40.444167600325656,Spain,Community of Madrid,Madrid,,,Chamartín,Calle de Suero de Quiñones,28002,Lidl, Calle de Suero de Quiñones, 28002 Madrid, Spain,['commercial', 'commercial.supermarket']
6334389256,Onix,-3.6784841,40.429885600323836,Spain,Community of Madrid,Madrid,,,Salamanca,Calle de José Ortega y Gasset,28006,Onix, Calle de José Ortega y Gasset, 28006 Madrid, Spain,['commercial', 'commercial.clothing', 'commercial.clothing.clothes']
6334389255,Blundell,-3.6784171999999997,40.42988310032384,Spain,Community of Madrid,Madrid,,,Salamanca,Calle de José Ortega y Gasset,28006,Blundell, Calle de José Ortega y Gasset, 28006 Madrid, Spain,['commercial', 'commercial.clothing', 'commercial.clothing.clothes']
11494664657,de Pablos,-3.680031099999999,40.4295546003238,Spain,Community of Madrid,Madrid,,,Salamanca,Calle del Príncipe de Vergara,28001,de Pablos, Calle del Príncipe de Vergara, 28001 Madrid, Spain,['commercial', 'commercial.clothing', 'commercial.clothing.shoes']
6334389254,Opticalia,-3.678365,40.42986450032384,Spain,Community of Madrid,Madrid,,,Salamanca,Calle del General Pardiñas,28001,Opticalia, Calle del General Pardiñas, 28001 Madrid, Spain,['commercial', 'commercial.health_and_beauty', 'commercial.health_and_beauty.optician']
3097584268,New Town Market,-3.6876426,40.43065840032394,Spain,Community of Madrid,Madrid,,,Salamanca,Calle de José Ortega y Gasset,28006,New Town Market, Calle de José Ortega y Gasset, 5, 28006 Madrid, Spain,['commercial', 'commercial.clothing', 'commercial.clothing.clothes']
4594571294,Fresh,-3.6730930000000006,40.43281670032422,Spain,Community of Madrid,Madrid,,,Salamanca,Calle de Francisco Silvela,28028,Fresh, Calle de Francisco Silvela, 28028 Madrid, Spain,['commercial', 'service', 'service.cleaning', 'service.cleaning.laundry']
6334389253,Oriol Balaguer,-3.6781448,40.429863200323844,Spain,Community of Madrid,Madrid,,,Salamanca,Calle del General Pardiñas,28001,Oriol Balaguer, Calle del General Pardiñas, 28001 Madrid, Spain,['commercial', 'commercial.food_and_drink', 'commercial.food_and_drink.bakery']
4582628378,Eloy y Aníbal,-3.6745039,40.44374360032559,Spain,Community of Madrid,Madrid,,,Chamartín,Calle de López de Hoyos,28002,Eloy y Aníbal, Calle de López de Hoyos, 28002 Madrid, Spain,['commercial', 'commercial.food_and_drink', 'commercial.food_and_drink.fruit_and_vegetable']
6015780686,Carlos Conde,-3.6927250999999996,40.43652510032467,Spain,Community of Madrid,Madrid,,,Chamberí,Calle de García de Paredes,28010,Carlos Conde, Calle de García de Paredes, 28010 Madrid, Spain,['commercial', 'service', 'service.beauty', 'service.beauty.hairdresser']
993195632,Ahorramás,-3.6762731999999994,40.44479980032575,Spain,Community of Madrid,Madrid,,,Chamartín,Calle de Suero de Quiñones,28002,Ahorramás, Calle de Suero de Quiñones, 28002 Madrid, Spain,['commercial', 'commercial.supermarket']
2298820806,El Sabroso,-3.6752546,40.44432100032568,Spain,Community of Madrid,Madrid,,,Chamartín,Calle de Suero de Quiñones,28002,El Sabroso, Calle de Suero de Quiñones, 28002 Madrid, Spain,['commercial', 'commercial.supermarket']
118512979,El Corte Inglés,-3.6875069805993688,40.430163700323874,Spain,Community of Madrid,Madrid,,,Salamanca,Calle de Serrano,28001,El Corte Inglés, Calle de Serrano, 47, 28001 Madrid, Spain,['building', 'building.commercial', 'commercial', 'commercial.department_store', 'wheelchair', 'wheelchair.yes']
4992487821,Servicio Técnico HP,-3.6720593999999998,40.44137200032531,Spain,Community of Madrid,Madrid,,,Chamartín,Calle de Clara del Rey,28002,Servicio Técnico HP, Calle de Clara del Rey, 25, 28002 Madrid, Spain,['commercial', 'commercial.elektronics']
3564580493,El Horno,-3.6928726,40.43694560032474,Spain,Community of Madrid,Madrid,,,Chamberí,Calle de Zurbano,28010,El Horno, Calle de Zurbano, 28010 Madrid, Spain,['commercial', 'commercial.food_and_drink', 'commercial.food_and_drink.bakery']
3265638046,Bodybell,-3.6753727000000005,40.444405900325684,Spain,Community of Madrid,Madrid,,,Chamartín,Calle de Suero de Quiñones,28002,Bodybell, Calle de Suero de Quiñones, 28002 Madrid, Spain,['commercial', 'commercial.health_and_beauty', 'service', 'service.beauty', 'service.beauty.spa']
3127903714,Óptica Garlens,-3.6726582,40.43302430032424,Spain,Community of Madrid,Madrid,Madrid Moderno,,Salamanca,Calle de Francisco Silvela,28028,Óptica Garlens, Calle de Francisco Silvela, 28028 Madrid, Spain,['commercial', 'commercial.health_and_beauty', 'commercial.health_and_beauty.optician']
6334426933,Kibo,-3.6719665,40.4414423003253,Spain,Community of Madrid,Madrid,,,Chamartín,Calle Clara del Rey,28002,Kibo, Calle Clara del Rey, 28002 Madrid, Spain,['commercial', 'service', 'service.beauty', 'service.beauty.hairdresser']
4919556463,Foto Exprés,-3.6749824,40.44430160032567,Spain,Community of Madrid,Madrid,,,Chamartín,Plaza de la Prosperidad,28002,Foto Exprés, Plaza de la Prosperidad, 28002 Madrid, Spain,['commercial', 'commercial.hobby', 'commercial.hobby.photo']
11494664665,[h]arina,-3.68401,40.42930190032376,Spain,Community of Madrid,Madrid,,,Salamanca,Calle de Don Ramón de la Cruz,28001,[h]arina, Calle de Don Ramón de la Cruz, 19, 28001 Madrid, Spain,['commercial', 'commercial.food_and_drink', 'commercial.food_and_drink.bakery']
4461053490,El Corte Inglés,-3.6867911,40.430001300323845,Spain,Community of Madrid,Madrid,,,Salamanca,Calle de Serrano,28001,El Corte Inglés, Calle de Serrano, 70, 28001 Madrid, Spain,['commercial', 'commercial.department_store']
11494664652,Alain Afflelou,-3.6773393999999997,40.42984940032384,Spain,Community of Madrid,Madrid,,,Salamanca,Calle de José Ortega y Gasset,28006,Alain Afflelou, Calle de José Ortega y Gasset, 28006 Madrid, Spain,['commercial', 'commercial.health_and_beauty', 'commercial.health_and_beauty.optician']
6334426929,Dormitienda,-3.6717518000000005,40.44125580032527,Spain,Community of Madrid,Madrid,,,Chamartín,Calle Clara del Rey,28002,Dormitienda, Calle Clara del Rey, 28002 Madrid, Spain,['commercial', 'commercial.furniture_and_interior', 'commercial.furniture_and_interior.bed']
1457025119,BAM Bakery,-3.6928911000000006,40.43939200032504,Spain,Community of Madrid,Madrid,,,Chamberí,Calle Bretón de los Herreros,28003,Calle Bretón de los Herreros, 28003 Madrid, Spain,['commercial', 'commercial.food_and_drink', 'commercial.food_and_drink.bakery']
6311286032,aQuarela Libros,-3.6717117000000004,40.44120100032527,Spain,Community of Madrid,Madrid,,,Chamartín,Calle Clara del Rey,28002,aQuarela Libros, Calle Clara del Rey, 8, 28002 Madrid, Spain,['commercial', 'commercial.books']
6334389251,Exp. nº 264,-3.678166,40.4295353003238,Spain,Community of Madrid,Madrid,,,Salamanca,Calle del General Pardiñas,28001,Exp. nº 264, Calle del General Pardiñas, 28001 Madrid, Spain,['commercial', 'commercial.smoking']
6334426928,Arunda2,-3.671499199999999,40.44099280032525,Spain,Community of Madrid,Madrid,,,Chamartín,Calle del Poeta Claudio Rodríguez,28002,Arunda2, Calle del Poeta Claudio Rodríguez, 28002 Madrid, Spain,['commercial', 'commercial.furniture_and_interior']
3564580494,Floridea,-3.6929756,40.43584740032458,Spain,Community of Madrid,Madrid,,,Chamberí,Calle de Zurbano,28010,Floridea, Calle de Zurbano, 28010 Madrid, Spain,['commercial', 'commercial.florist']
6334426927,Aries,-3.671461,40.440956900325254,Spain,Community of Madrid,Madrid,,,Chamartín,Calle del Poeta Claudio Rodríguez,28002,Aries, Calle del Poeta Claudio Rodríguez, 28002 Madrid, Spain,['commercial', 'commercial.food_and_drink', 'commercial.food_and_drink.confectionery']
2789359853,Calzados Cibeles,-3.6741693,40.44396520032563,Spain,Community of Madrid,Madrid,,,Chamartín,Calle de López de Hoyos,28002,Calzados Cibeles, Calle de López de Hoyos, 114, 28002 Madrid, Spain,['commercial', 'commercial.clothing', 'commercial.clothing.shoes']
4688742303,MNC,-3.6921022999999993,40.433847700324336,Spain,Community of Madrid,Madrid,,,Chamberí,Calle de Alfonso X,28010,MNC, Calle de Alfonso X, 6, 28010 Madrid, Spain,['commercial', 'commercial.clothing', 'commercial.clothing.clothes']
4594571295,Madrigal,-3.6728194000000003,40.432480800324164,Spain,Community of Madrid,Madrid,,,Salamanca,Calle de Juan Bravo,28028,Madrigal, Calle de Juan Bravo, 28028 Madrid, Spain,['commercial', 'service', 'service.beauty', 'service.beauty.hairdresser']
4501448820,Lamberts Española,-3.6713354,40.44085420032522,Spain,Community of Madrid,Madrid,,,Chamartín,Calle del Corazón de María,28002,Lamberts Española, Calle del Corazón de María, 3, 28002 Madrid, Spain,['commercial']
11222675307,Gloria & Anna,-3.6820887,40.428948900323725,Spain,Community of Madrid,Madrid,,,Salamanca,Calle de Don Ramón de la Cruz,28001,Gloria & Anna, Calle de Don Ramón de la Cruz, 28001 Madrid, Spain,['commercial', 'service', 'service.beauty', 'service.beauty.hairdresser']
11222675306,Protocolo,-3.6823257,40.428949200323714,Spain,Community of Madrid,Madrid,,,Salamanca,Calle de Don Ramón de la Cruz,28001,Protocolo, Calle de Don Ramón de la Cruz, 28001 Madrid, Spain,['commercial', 'commercial.clothing', 'commercial.clothing.clothes']
7159069106,Vallehermoso Wagen,-3.673653799999999,40.43165010032406,Spain,Community of Madrid,Madrid,,,Salamanca,Calle Alcántara,28006,Vallehermoso Wagen, Calle Alcántara, 28006 Madrid, Spain,['commercial', 'commercial.vehicle']
4958134048,Ardemadrid,-3.6717467000000004,40.43369490032432,Spain,Community of Madrid,Madrid,Madrid Moderno,,Salamanca,Calle de Ardemans,28028,Ardemadrid, Calle de Ardemans, 9, 28028 Madrid, Spain,['commercial', 'commercial.hobby', 'commercial.hobby.music']
6370951852,Apia,-3.6922481,40.433916900324355,Spain,Community of Madrid,Madrid,,,Chamberí,Calle de Alfonso X,28010,Apia, Calle de Alfonso X, 28010 Madrid, Spain,['commercial', 'commercial.furniture_and_interior']
4688742306,Sibaro,-3.6920909,40.433659400324316,Spain,Community of Madrid,Madrid,,,Chamberí,Calle de Alfonso X,28010,Sibaro, Calle de Alfonso X, 6, 28010 Madrid, Spain,['commercial']
3212683925,Campos de Retana,-3.681432299999999,40.428904000323705,Spain,Community of Madrid,Madrid,,,Salamanca,Calle de Don Ramón de la Cruz,28006,Campos de Retana, Calle de Don Ramón de la Cruz, 40, 28006 Madrid, Spain,['commercial', 'commercial.food_and_drink', 'commercial.food_and_drink.bakery']
5493309524,La Antigua Floristería,-3.6708290000000003,40.435382900324534,Spain,Community of Madrid,Madrid,Madrid Moderno,,Salamanca,Calle de Ferrer del Río,28028,La Antigua Floristería, Calle de Ferrer del Río, 28028 Madrid, Spain,['commercial', 'commercial.florist']
3579363551,Miu Miu,-3.6858441999999996,40.42938040032377,Spain,Community of Madrid,Madrid,,,Salamanca,Calle de Claudio Coello,28001,Miu Miu, Calle de Claudio Coello, 72, 28001 Madrid, Spain,['commercial', 'commercial.clothing', 'commercial.clothing.clothes']
7165608285,Malaga 8 guitar,-3.6933561999999993,40.43869750032496,Spain,Community of Madrid,Madrid,,,Chamberí,Calle de Málaga,28003,Malaga 8 guitar, Calle de Málaga, 8, 28003 Madrid, Spain,['commercial', 'commercial.outdoor_and_sport']
6334426931,Martín Martín,-3.6716495000000005,40.441688600325335,Spain,Community of Madrid,Madrid,,,Chamartín,Calle de Juan Bautista de Toledo,28002,Martín Martín, Calle de Juan Bautista de Toledo, 28002 Madrid, Spain,['commercial', 'commercial.food_and_drink', 'commercial.food_and_drink.bakery']
5493326121,Papelería,-3.6708337999999996,40.43512780032451,Spain,Community of Madrid,Madrid,Madrid Moderno,,Salamanca,Calle de Pilar de Zaragoza,28028,Papelería, Calle de Pilar de Zaragoza, 28028 Madrid, Spain,['commercial', 'commercial.stationery']
7299944779,Yamaha Motor Madrid,-3.692739499999999,40.44082470032522,Spain,Community of Madrid,Madrid,,,Chamberí,Calle de Zurbano,28003,Yamaha Motor Madrid, Calle de Zurbano, 28003 Madrid, Spain,['commercial', 'commercial.vehicle']
4461053389,Louis Vuitton,-3.686884399999999,40.42964020032382,Spain,Community of Madrid,Madrid,,,Salamanca,Calle de Serrano,28001,Louis Vuitton, Calle de Serrano, 66, 28001 Madrid, Spain,['commercial', 'commercial.clothing', 'commercial.clothing.clothes']
6336187133,Super Juguete,-3.671147799999999,40.44096260032525,Spain,Community of Madrid,Madrid,,,Chamartín,Calle del Corazón de María,28002,Super Juguete, Calle del Corazón de María, 28002 Madrid, Spain,['commercial', 'commercial.toy_and_game']
5367915821,Flor d'kko,-3.6742354000000006,40.431006300323986,Spain,Community of Madrid,Madrid,,,Salamanca,Calle de Padilla,28006,Flor d'kko, Calle de Padilla, 68, 28006 Madrid, Spain,['commercial', 'commercial.food_and_drink', 'commercial.food_and_drink.confectionery']
7299944780,Marco Aldany,-3.6927355000000004,40.44087570032523,Spain,Community of Madrid,Madrid,,,Chamberí,Calle de Zurbano,28003,Marco Aldany, Calle de Zurbano, 28003 Madrid, Spain,['commercial', 'service', 'service.beauty', 'service.beauty.hairdresser']
4214044699,Ecolicor,-3.6744307999999997,40.44445350032569,Spain,Community of Madrid,Madrid,,,Chamartín,Calle de López de Hoyos,28002,Ecolicor, Calle de López de Hoyos, 81, 28002 Madrid, Spain,['commercial', 'commercial.food_and_drink', 'commercial.food_and_drink.drinks']
2888139000,Mallorca,-3.6840321000000005,40.4289086003237,Spain,Community of Madrid,Madrid,,,Salamanca,Calle de Velázquez,28001,Mallorca, Calle de Velázquez, 59, 28001 Madrid, Spain,['commercial', 'commercial.food_and_drink', 'commercial.food_and_drink.bakery']
3893664483,Ahorramás,-3.6742820000000003,40.444370600325676,Spain,Community of Madrid,Madrid,,,Chamartín,Calle de López de Hoyos,28002,Ahorramás, Calle de López de Hoyos, 81, 28002 Madrid, Spain,['commercial', 'commercial.supermarket', 'wheelchair', 'wheelchair.yes']
7310479264,The Travel Brand,-3.6749902000000003,40.44482400032574,Spain,Community of Madrid,Madrid,,,Chamartín,Calle de Vinaroz,28002,The Travel Brand, Calle de Vinaroz, 28002 Madrid, Spain,['commercial', 'service', 'service.travel_agency']
11224609866,Marina Sport,-3.685078299999999,40.42906900032375,Spain,Community of Madrid,Madrid,,,Salamanca,Calle de Don Ramón de la Cruz,28001,Marina Sport, Calle de Don Ramón de la Cruz, 28001 Madrid, Spain,['commercial', 'commercial.outdoor_and_sport']
7310479269,Chocolatería San Ginés,-3.6741501,40.44433460032568,Spain,Community of Madrid,Madrid,,,Chamartín,Calle de López de Hoyos,28002,Chocolatería San Ginés, Calle de López de Hoyos, 81, 28002 Madrid, Spain,['commercial', 'commercial.food_and_drink', 'commercial.food_and_drink.chocolate']
3891098310,iFixRapid Servicio Técnico Apple,-3.6710516,40.44101610032525,Spain,Community of Madrid,Madrid,,,Chamartín,Calle del Corazón de María,28002,iFixRapid Servicio Técnico Apple, Calle del Corazón de María, 5, 28002 Madrid, Spain,['commercial', 'commercial.elektronics', 'wheelchair', 'wheelchair.yes']
6334426930,Hiber,-3.6713326000000004,40.441539800325316,Spain,Community of Madrid,Madrid,,,Chamartín,Calle Clara del Rey,28002,Hiber, Calle Clara del Rey, 28002 Madrid, Spain,['commercial', 'commercial.supermarket']
3223094445,Digital SA,-3.670659,40.43491730032448,Spain,Community of Madrid,Madrid,Madrid Moderno,,Salamanca,Calle de Pilar de Zaragoza,28028,Digital SA, Calle de Pilar de Zaragoza, 45, 28028 Madrid, Spain,['commercial', 'commercial.elektronics']
10949938494,Cervecería Dichosita,-3.671024899999999,40.43406660032437,Spain,Community of Madrid,Madrid,Madrid Moderno,,Salamanca,Calle de Eraso,28028,Cervecería Dichosita, Calle de Eraso, 14, 28028 Madrid, Spain,['commercial', 'commercial.food_and_drink', 'commercial.food_and_drink.drinks']
1436605489,Taste of America,-3.6848735000000006,40.446458100325934,Spain,Community of Madrid,Madrid,,,Chamartín,Calle de Serrano,28002,Taste of America, Calle de Serrano, 149, 28002 Madrid, Spain,['commercial']
7180537485,Ferreteria,-3.6706322,40.43477790032446,Spain,Community of Madrid,Madrid,Madrid Moderno,,Salamanca,Calle de Pilar de Zaragoza,28028,Ferreteria, Calle de Pilar de Zaragoza, 28028 Madrid, Spain,['commercial', 'commercial.discount_store']
9735570205,Beer Bang,-3.6709506999999992,40.434089500324376,Spain,Community of Madrid,Madrid,Madrid Moderno,,Salamanca,Calle de Eraso,28028,Beer Bang, Calle de Eraso, 14, 28028 Madrid, Spain,['commercial', 'commercial.food_and_drink', 'commercial.food_and_drink.drinks']
838104986,Vinntravel,-3.6750913,40.43015480032388,Spain,Community of Madrid,Madrid,,,Salamanca,Calle del Conde de Peñalver,28006,Vinntravel, Calle del Conde de Peñalver, 28006 Madrid, Spain,['commercial', 'service', 'service.travel_agency']
4214048208,AKI,-3.673692,40.44434460032567,Spain,Community of Madrid,Madrid,,,Chamartín,Calle de López de Hoyos,28002,AKI, Calle de López de Hoyos, 120, 28002 Madrid, Spain,['commercial', 'commercial.houseware_and_hardware', 'commercial.houseware_and_hardware.doityourself']
6858919685,Decathlon City,-3.6736569999999995,40.44437270032568,Spain,Community of Madrid,Madrid,,,Chamartín,Calle de López de Hoyos,28002,Decathlon City López de Hoyos, Calle de López de Hoyos, 124, 28002 Madrid, Spain,['commercial', 'commercial.outdoor_and_sport']
4683067991,Estudio 26,-3.67047,40.434719500324455,Spain,Community of Madrid,Madrid,Madrid Moderno,,Salamanca,Calle de Pilar de Zaragoza,28028,Estudio 26, Calle de Pilar de Zaragoza, 28028 Madrid, Spain,['commercial', 'service', 'service.beauty', 'service.beauty.hairdresser']
4683067491,Lotería Nacional,-3.6704132,40.43464630032444,Spain,Community of Madrid,Madrid,Madrid Moderno,,Salamanca,Calle de Pilar de Zaragoza,28028,Lotería Nacional, Calle de Pilar de Zaragoza, 28028 Madrid, Spain,['commercial', 'commercial.tickets_and_lottery']
5279310479,Stella McCartney,-3.6869308999999992,40.429142800323746,Spain,Community of Madrid,Madrid,,,Salamanca,Calle de Serrano,28001,Stella McCartney, Calle de Serrano, 62, 28001 Madrid, Spain,['commercial', 'commercial.clothing', 'commercial.clothing.clothes', 'commercial.clothing.women']
9451324098,Pepe Peñalver,-3.6813581,40.428328000323646,Spain,Community of Madrid,Madrid,,,Salamanca,Calle de Castelló,28001,Pepe Peñalver, Calle de Castelló, 61, 28001 Madrid, Spain,['commercial', 'commercial.furniture_and_interior', 'commercial.furniture_and_interior.curtain']
6334389244,Mares,-3.6782216000000005,40.42872930032369,Spain,Community of Madrid,Madrid,,,Salamanca,Calle del General Pardiñas,28001,Calle del General Pardiñas, 28001 Madrid, Spain,['commercial', 'commercial.food_and_drink', 'commercial.food_and_drink.drinks']
2627702743,Mulaya,-3.6719463000000006,40.43219640032413,Spain,Community of Madrid,Madrid,Madrid Moderno,,Salamanca,Calle de Martínez Izquierdo,28028,Mulaya, Calle de Martínez Izquierdo, 28028 Madrid, Spain,['commercial', 'commercial.clothing', 'commercial.clothing.clothes']
4461053390,Rolex,-3.6873530999999997,40.42919230032375,Spain,Community of Madrid,Madrid,,,Salamanca,Calle de Serrano,28001,Rolex, Calle de Serrano, 45, 28001 Madrid, Spain,['commercial', 'commercial.jewelry']
4664520275,Honorio y Anita. Tienda de Encuadernación,-3.6710324,40.433128300324256,Spain,Community of Madrid,Madrid,Madrid Moderno,,Salamanca,Calle de Ardemans,28028,Honorio y Anita. Tienda de Encuadernación, Calle de Ardemans, 28028 Madrid, Spain,['commercial', 'commercial.hobby', 'commercial.hobby.art']
11494700038,Balbisiana,-3.6840739999999994,40.428328000323646,Spain,Community of Madrid,Madrid,,,Salamanca,Calle de Velázquez,28001,Balbisiana, Calle de Velázquez, 28001 Madrid, Spain,['commercial', 'commercial.food_and_drink', 'commercial.food_and_drink.bakery']
5920151285,Lonbali,-3.6862110000000006,40.428734200323696,Spain,Community of Madrid,Madrid,,,Salamanca,Calle de Claudio Coello,28001,Lonbali, Calle de Claudio Coello, 69, 28001 Madrid, Spain,['commercial', 'commercial.clothing', 'commercial.clothing.clothes']
2993567976,Kenay Home,-3.6826626000000005,40.428131000323624,Spain,Community of Madrid,Madrid,,,Salamanca,Calle de Núñez de Balboa,28001,Kenay Home, Calle de Núñez de Balboa, 59, 28001 Madrid, Spain,['commercial', 'commercial.furniture_and_interior']
5920151185,Lander Urquino,-3.6862221000000006,40.42866920032368,Spain,Community of Madrid,Madrid,,,Salamanca,Calle de Claudio Coello,28001,Lander Urquino, Calle de Claudio Coello, 69, 28001 Madrid, Spain,['commercial', 'commercial.clothing', 'commercial.clothing.shoes']
6010069088,Bakery,-3.6944235,40.43673840032471,Spain,Community of Madrid,Madrid,,,Chamberí,Calle de García de Paredes,28010,Bakery, Calle de García de Paredes, 28010 Madrid, Spain,['commercial', 'commercial.food_and_drink', 'commercial.food_and_drink.bakery']
5158621521,Mango,-3.6869619999999994,40.42884750032371,Spain,Community of Madrid,Madrid,,,Salamanca,Calle de Serrano,28001,Mango, Calle de Serrano, 60, 28001 Madrid, Spain,['commercial', 'commercial.clothing', 'commercial.clothing.clothes']
10751083348,El Súper de los Pastores,-3.6767927999999994,40.428850800323715,Spain,Community of Madrid,Madrid,,,Salamanca,Calle de Don Ramón de la Cruz,28001,El Súper de los Pastores, Calle de Don Ramón de la Cruz, 69, 28001 Madrid, Spain,['commercial', 'commercial.supermarket']
3625628506,Giant,-3.6907683000000002,40.444551800325705,Spain,Community of Madrid,Madrid,,,Chamartín,Paseo de la Castellana,28046,Giant, Paseo de la Castellana, 28046 Madrid, Spain,['commercial', 'commercial.outdoor_and_sport', 'commercial.outdoor_and_sport.bicycle']
1434351971,Supersol,-3.6742163,40.42997090032385,Spain,Community of Madrid,Madrid,,,Salamanca,Calle de José Ortega y Gasset,28006,Supersol, Calle de José Ortega y Gasset, 28006 Madrid, Spain,['commercial', 'commercial.supermarket', 'wheelchair', 'wheelchair.yes']
4553647390,Pastelería Luzón,-3.6751493,40.42944040032379,Spain,Community of Madrid,Madrid,,,Salamanca,Calle del Conde de Peñalver,28006,Pastelería Luzón, Calle del Conde de Peñalver, 42, 28006 Madrid, Spain,['commercial', 'commercial.food_and_drink', 'commercial.food_and_drink.bakery']
10245185446,Primaprix,-3.670723,40.442314400325415,Spain,Community of Madrid,Madrid,,,Chamartín,Calle de Alustante,28002,Primaprix, Calle de Alustante, 28002 Madrid, Spain,['commercial', 'commercial.supermarket']
6039825485,Belgravia,-3.6946029000000005,40.436268400324664,Spain,Community of Madrid,Madrid,,,Chamberí,Calle de Fernández de la Hoz,28010,Belgravia, Calle de Fernández de la Hoz, 50, 28010 Madrid, Spain,['commercial', 'commercial.clothing', 'commercial.clothing.clothes']
5366396021,Chocolatería Valor,-3.6756022000000006,40.42912900032374,Spain,Community of Madrid,Madrid,,,Salamanca,Calle del Conde de Peñalver,28006,Chocolatería Valor, Calle del Conde de Peñalver, 43, 28006 Madrid, Spain,['commercial', 'commercial.food_and_drink', 'commercial.food_and_drink.confectionery']
5208254121,Rita Von,-3.6915735,40.431175300324,Spain,Community of Madrid,Madrid,,,Chamberí,Calle de Monteesquinza,28010,Rita Von, Calle de Monteesquinza, 46, 28010 Madrid, Spain,['commercial', 'commercial.clothing', 'commercial.clothing.clothes']
4881547824,BM,-3.6703687,40.433342800324276,Spain,Community of Madrid,Madrid,Madrid Moderno,,Salamanca,Calle de Cartagena,28028,BM, Calle de Cartagena, 28028 Madrid, Spain,['commercial', 'commercial.supermarket']
6336187109,Green Store,-3.670398,40.44202700032539,Spain,Community of Madrid,Madrid,,,Chamartín,Calle de Alustante,28002,Green Store, Calle de Alustante, 6, 28002 Madrid, Spain,['commercial', 'commercial.food_and_drink', 'commercial.food_and_drink.fruit_and_vegetable']
6336187107,TuMascota,-3.6703046,40.44194440032537,Spain,Community of Madrid,Madrid,,,Chamartín,Calle de Alustante,28002,TuMascota, Calle de Alustante, 6, 28002 Madrid, Spain,['commercial', 'commercial.pet', 'pet', 'pet.shop']
6336187103,El Olivar de Manuela,-3.6702339999999998,40.441875300325364,Spain,Community of Madrid,Madrid,,,Chamartín,Calle de Alustante,28002,El Olivar de Manuela, Calle de Alustante, 4, 28002 Madrid, Spain,['commercial']
6336187104,Diseño - Flowers And Designs,-3.6702052,40.44184460032536,Spain,Community of Madrid,Madrid,,,Chamartín,Calle de Alustante,28002,Diseño - Flowers And Designs, Calle de Alustante, 4, 28002 Madrid, Spain,['commercial', 'commercial.florist']
8556683660,Tintorería Capricho,-3.6742521999999997,40.44561830032584,Spain,Community of Madrid,Madrid,,,Chamartín,Calle de Eugenio Salazar,28002,Tintorería Capricho, Calle de Eugenio Salazar, 28002 Madrid, Spain,['commercial', 'service', 'service.cleaning', 'service.cleaning.dry_cleaning']
6334389246,Estudio de pintura Concha Márquez,-3.6782885000000003,40.42815680032362,Spain,Community of Madrid,Madrid,,,Salamanca,Calle del General Pardiñas,28001,Estudio de pintura Concha Márquez, Calle del General Pardiñas, 48, 28001 Madrid, Spain,['commercial', 'commercial.hobby', 'commercial.hobby.art']
6336187106,SH peluqueros,-3.6701433,40.44178980032536,Spain,Community of Madrid,Madrid,,,Chamartín,Calle de Alustante,28002,SH peluqueros, Calle de Alustante, 4, 28002 Madrid, Spain,['commercial', 'service', 'service.beauty', 'service.beauty.hairdresser']
6336187105,G.A.S. Attack,-3.6700712000000006,40.44172290032534,Spain,Community of Madrid,Madrid,,,Chamartín,Calle de Alustante,28002,G.A.S. Attack, Calle de Alustante, 4, 28002 Madrid, Spain,['commercial', 'commercial.hobby', 'commercial.hobby.music']
6370988196,Carrefour Express,-3.6944371000000005,40.43493310032448,Spain,Community of Madrid,Madrid,,,Chamberí,Paseo del General Martínez Campos,28010,Carrefour Express, Paseo del General Martínez Campos, 28010 Madrid, Spain,['commercial', 'commercial.convenience']
7187507885,Ropa La malagrosa 10:30,-3.694940299999999,40.43688170032474,Spain,Community of Madrid,Madrid,,,Chamberí,Calle de García de Paredes,28010,Ropa La malagrosa 10:30, Calle de García de Paredes, 45, 28010 Madrid, Spain,['commercial', 'commercial.clothing', 'commercial.clothing.clothes']
8556683656,Dia Market,-3.6745323,40.445900800325866,Spain,Community of Madrid,Madrid,,,Chamartín,Calle de Eugenio Salazar,28002,Dia Market, Calle de Eugenio Salazar, 28002 Madrid, Spain,['commercial', 'commercial.supermarket']
4342610589,Lexus,-3.6907197,40.44509190032576,Spain,Community of Madrid,Madrid,,,Chamartín,Calle de Carbonero y Sol,28006,Lexus, Calle de Carbonero y Sol, 28006 Madrid, Spain,['commercial', 'commercial.vehicle']
8503322167,El Mercadito de Prosperidad,-3.6741794,40.44580660032586,Spain,Community of Madrid,Madrid,,,Chamartín,Calle Matilde Díez,28002,El Mercadito de Prosperidad, Calle Matilde Díez, 28002 Madrid, Spain,['commercial']
2573891242,Condis,-3.6718917999999996,40.44421410032567,Spain,Community of Madrid,Madrid,,,Chamartín,Calle de Ros de Olano,28002,Condis, Calle de Ros de Olano, 28002 Madrid, Spain,['commercial', 'commercial.supermarket']
8503322166,Peluquería de Caballeros Dorna,-3.6738638999999993,40.44565370032584,Spain,Community of Madrid,Madrid,,,Chamartín,Calle de Malcampo,28002,Peluquería de Caballeros Dorna, Calle de Malcampo, 28002 Madrid, Spain,['commercial', 'service', 'service.beauty', 'service.beauty.hairdresser']
4155451499,ONCE,-3.6754897000000004,40.4288164003237,Spain,Community of Madrid,Madrid,,,Salamanca,Calle del Conde de Peñalver,28006,ONCE, Calle del Conde de Peñalver, 41, 28006 Madrid, Spain,['commercial', 'commercial.tickets_and_lottery']
4594662489,Vino Premier.com,-3.6717302000000003,40.431200700324005,Spain,Community of Madrid,Madrid,,,Salamanca,Calle de Francisco Silvela,28028,Vino Premier.com, Calle de Francisco Silvela, 28028 Madrid, Spain,['commercial', 'commercial.food_and_drink', 'commercial.food_and_drink.drinks']
11046888761,Frutas y Pan,-3.6950264,40.43918340032502,Spain,Community of Madrid,Madrid,,,Chamberí,Calle Bretón de los Herreros,28003,Frutas y Pan, Calle Bretón de los Herreros, 28003 Madrid, Spain,['commercial', 'commercial.convenience']
8634990957,Knack Men,-3.6814308999999996,40.42751690032354,Spain,Community of Madrid,Madrid,,,Salamanca,Calle de Ayala,28001,Knack Men, Calle de Ayala, 60, 28001 Madrid, Spain,['commercial', 'commercial.clothing', 'commercial.clothing.clothes']
4576234318,Intimissimi,-3.6871137999999997,40.42830050032364,Spain,Community of Madrid,Madrid,,,Salamanca,Acera Bici Serrano,28001,Intimissimi, Acera Bici Serrano, 28001 Madrid, Spain,['commercial', 'commercial.clothing', 'commercial.clothing.clothes', 'commercial.clothing.underwear']
11494700040,General Óptica,-3.684142,40.427631200323546,Spain,Community of Madrid,Madrid,,,Salamanca,Calle de Ayala,28001,General Óptica, Calle de Ayala, 28001 Madrid, Spain,['commercial', 'commercial.health_and_beauty', 'commercial.health_and_beauty.optician']
4577913389,Carrefour Express,-3.6942685999999996,40.43387360032435,Spain,Community of Madrid,Madrid,,,Chamberí,Calle de Rafael Calvo,28010,Carrefour Express, Calle de Rafael Calvo, 18, 28010 Madrid, Spain,['commercial', 'commercial.convenience']
4608437289,Borgia Conti,-3.684429,40.42766150032356,Spain,Community of Madrid,Madrid,,,Salamanca,Calle de Ayala,28001,Borgia Conti, Calle de Ayala, 38, 28001 Madrid, Spain,['commercial', 'commercial.furniture_and_interior']
11224609869,Lodi,-3.686066,40.427973000323604,Spain,Community of Madrid,Madrid,,,Salamanca,Calle de Claudio Coello,28001,Lodi, Calle de Claudio Coello, 28001 Madrid, Spain,['commercial', 'commercial.clothing', 'commercial.clothing.shoes']
2789359860,Peatón,-3.672846199999999,40.445129500325784,Spain,Community of Madrid,Madrid,,,Chamartín,Calle de López de Hoyos,28002,Peatón, Calle de López de Hoyos, 95, 28002 Madrid, Spain,['commercial', 'commercial.clothing', 'commercial.clothing.shoes']
10245132222,Mundo Pinturas - Suministros Sotillo,-3.6697178,40.44180040032535,Spain,Community of Madrid,Madrid,,,Chamartín,Calle del Corazón de María,28002,Mundo Pinturas - Suministros Sotillo, Calle del Corazón de María, 11, 28002 Madrid, Spain,['commercial', 'commercial.hobby', 'commercial.hobby.art', 'commercial.houseware_and_hardware', 'commercial.houseware_and_hardware.building_materials', 'commercial.houseware_and_hardware.building_materials.paint']
6010123185,Pareli,-3.6951976999999996,40.4365777003247,Spain,Community of Madrid,Madrid,,,Chamberí,Calle de García de Paredes,28010,Pareli, Calle de García de Paredes, 28010 Madrid, Spain,['commercial', 'commercial.food_and_drink', 'commercial.food_and_drink.bakery']
